GLOBALSTAR M082         
1 38042U 11080C   26115.78017909 -.00000095  00000+0  48854-4 0  9990
2 38042  52.0050 134.0229 0000397 143.7498  27.1391 12.62269310662972
GLOBALSTAR M092         
1 38043U 11080D   26115.56090006 -.00000099  00000+0  26425-4 0  9990
2 38043  52.0085 225.0851 0000535 120.3769 252.9795 12.62266679661407
GLOBALSTAR M090         
1 38044U 11080E   26115.80671528 -.00000095  00000+0  48839-4 0  9991
2 38044  52.0100 127.8806 0000091 120.8804  49.7825 12.62268269663097
GLOBALSTAR M086         
1 38045U 11080F   26115.75016300 -.00000089  00000+0  83433-4 0  9999
2 38045  51.9873 128.0686 0000855 301.5158 229.4693 12.62285464663030
GLOBALSTAR M097         
1 39072U 13005A   26115.82159561 -.00000103  00000+0  42899-5 0  9993
2 39072  52.0063  42.7352 0000399  76.5791 283.5120 12.62260049610299
GLOBALSTAR M093         
1 39073U 13005B   26115.47860934 -.00000097  00000+0  38796-4 0  9990
2 39073  52.0128  37.1088 0000302  84.9849 275.1052 12.62264577610209
GLOBALSTAR M094         
1 39074U 13005C   26115.79540807 -.00000075  00000+0  16057-3 0  9991
2 39074  51.9963 310.3179 0000653 112.4003 247.6933 12.62267848611858
GLOBALSTAR M096         
1 39075U 13005D   26115.80871975 -.00000088  00000+0  86726-4 0  9992
2 39075  52.0099 359.0359 0000635  93.8720 266.2219 12.62264322610777
GLOBALSTAR M078         
1 39076U 13005E   26115.62326641 -.00000105  00000+0 -74763-5 0  9998
2 39076  51.9866  83.6770 0001050 127.6312 232.4650 12.62266028609373
GLOBALSTAR M095         
1 39077U 13005F   26115.65008156 -.00000101  00000+0  14080-4 0  9990
2 39077  52.0073  81.1263 0000378 130.2298 229.8602 12.62267355609237
GLOBALSTAR M087         
1 52888U 22064A   26115.58435248 -.00000098  00000+0  32516-4 0  9997
2 52888  51.9997 222.6002 0000614 150.9549 209.1352 12.62268341184494
