[{"OBJECT_NAME":"GLOBALSTAR M082","OBJECT_ID":"2011-080C","EPOCH":"2026-04-25T18:43:27.473376","MEAN_MOTION":12.6226931,"ECCENTRICITY":3.97e-5,"INCLINATION":52.005,"RA_OF_ASC_NODE":134.0229,"ARG_OF_PERICENTER":143.7498,"MEAN_ANOMALY":27.1391,"EPHEMERIS_TYPE":0,"CLASSIFICATION_TYPE":"U","NORAD_CAT_ID":38042,"ELEMENT_SET_NO":999,"REV_AT_EPOCH":66297,"BSTAR":4.8854e-5,"MEAN_MOTION_DOT":-9.5e-7,"MEAN_MOTION_DDOT":0},{"OBJECT_NAME":"GLOBALSTAR M092","OBJECT_ID":"2011-080D","EPOCH":"2026-04-25T13:27:41.765184","MEAN_MOTION":12.62266679,"ECCENTRICITY":5.35e-5,"INCLINATION":52.0085,"RA_OF_ASC_NODE":225.0851,"ARG_OF_PERICENTER":120.3769,"MEAN_ANOMALY":252.9795,"EPHEMERIS_TYPE":0,"CLASSIFICATION_TYPE":"U","NORAD_CAT_ID":38043,"ELEMENT_SET_NO":999,"REV_AT_EPOCH":66140,"BSTAR":2.6425e-5,"MEAN_MOTION_DOT":-9.9e-7,"MEAN_MOTION_DDOT":0},{"OBJECT_NAME":"GLOBALSTAR M090","OBJECT_ID":"2011-080E","EPOCH":"2026-04-25T19:21:40.200192","MEAN_MOTION":12.62268269,"ECCENTRICITY":9.1e-6,"INCLINATION":52.01,"RA_OF_ASC_NODE":127.8806,"ARG_OF_PERICENTER":120.8804,"MEAN_ANOMALY":49.7825,"EPHEMERIS_TYPE":0,"CLASSIFICATION_TYPE":"U","NORAD_CAT_ID":38044,"ELEMENT_SET_NO":999,"REV_AT_EPOCH":66309,"BSTAR":4.8839e-5,"MEAN_MOTION_DOT":-9.5e-7,"MEAN_MOTION_DDOT":0},{"OBJECT_NAME":"GLOBALSTAR M086","OBJECT_ID":"2011-080F","EPOCH":"2026-04-25T18:00:14.083200","MEAN_MOTION":12.62285464,"ECCENTRICITY":8.55e-5,"INCLINATION":51.9873,"RA_OF_ASC_NODE":128.0686,"ARG_OF_PERICENTER":301.5158,"MEAN_ANOMALY":229.4693,"EPHEMERIS_TYPE":0,"CLASSIFICATION_TYPE":"U","NORAD_CAT_ID":38045,"ELEMENT_SET_NO":999,"REV_AT_EPOCH":66303,"BSTAR":8.3433e-5,"MEAN_MOTION_DOT":-8.9e-7,"MEAN_MOTION_DDOT":0},{"OBJECT_NAME":"GLOBALSTAR M097","OBJECT_ID":"2013-005A","EPOCH":"2026-04-25T19:43:05.860704","MEAN_MOTION":12.62260049,"ECCENTRICITY":3.99e-5,"INCLINATION":52.0063,"RA_OF_ASC_NODE":42.7352,"ARG_OF_PERICENTER":76.5791,"MEAN_ANOMALY":283.512,"EPHEMERIS_TYPE":0,"CLASSIFICATION_TYPE":"U","NORAD_CAT_ID":39072,"ELEMENT_SET_NO":999,"REV_AT_EPOCH":61029,"BSTAR":4.2899e-6,"MEAN_MOTION_DOT":-1.03e-6,"MEAN_MOTION_DDOT":0},{"OBJECT_NAME":"GLOBALSTAR M093","OBJECT_ID":"2013-005B","EPOCH":"2026-04-25T11:29:11.846976","MEAN_MOTION":12.62264577,"ECCENTRICITY":3.02e-5,"INCLINATION":52.0128,"RA_OF_ASC_NODE":37.1088,"ARG_OF_PERICENTER":84.9849,"MEAN_ANOMALY":275.1052,"EPHEMERIS_TYPE":0,"CLASSIFICATION_TYPE":"U","NORAD_CAT_ID":39073,"ELEMENT_SET_NO":999,"REV_AT_EPOCH":61020,"BSTAR":3.8796e-5,"MEAN_MOTION_DOT":-9.7e-7,"MEAN_MOTION_DDOT":0},{"OBJECT_NAME":"GLOBALSTAR M094","OBJECT_ID":"2013-005C","EPOCH":"2026-04-25T19:05:23.257248","MEAN_MOTION":12.62267848,"ECCENTRICITY":6.53e-5,"INCLINATION":51.9963,"RA_OF_ASC_NODE":310.3179,"ARG_OF_PERICENTER":112.4003,"MEAN_ANOMALY":247.6933,"EPHEMERIS_TYPE":0,"CLASSIFICATION_TYPE":"U","NORAD_CAT_ID":39074,"ELEMENT_SET_NO":999,"REV_AT_EPOCH":61185,"BSTAR":0.00016057,"MEAN_MOTION_DOT":-7.5e-7,"MEAN_MOTION_DDOT":0},{"OBJECT_NAME":"GLOBALSTAR M096","OBJECT_ID":"2013-005D","EPOCH":"2026-04-25T19:24:33.386400","MEAN_MOTION":12.62264322,"ECCENTRICITY":6.35e-5,"INCLINATION":52.0099,"RA_OF_ASC_NODE":359.0359,"ARG_OF_PERICENTER":93.872,"MEAN_ANOMALY":266.2219,"EPHEMERIS_TYPE":0,"CLASSIFICATION_TYPE":"U","NORAD_CAT_ID":39075,"ELEMENT_SET_NO":999,"REV_AT_EPOCH":61077,"BSTAR":8.6726e-5,"MEAN_MOTION_DOT":-8.8e-7,"MEAN_MOTION_DDOT":0},{"OBJECT_NAME":"GLOBALSTAR M078","OBJECT_ID":"2013-005E","EPOCH":"2026-04-25T14:57:30.217824","MEAN_MOTION":12.62266028,"ECCENTRICITY":0.000105,"INCLINATION":51.9866,"RA_OF_ASC_NODE":83.677,"ARG_OF_PERICENTER":127.6312,"MEAN_ANOMALY":232.465,"EPHEMERIS_TYPE":0,"CLASSIFICATION_TYPE":"U","NORAD_CAT_ID":39076,"ELEMENT_SET_NO":999,"REV_AT_EPOCH":60937,"BSTAR":-7.4763e-6,"MEAN_MOTION_DOT":-1.05e-6,"MEAN_MOTION_DDOT":0},{"OBJECT_NAME":"GLOBALSTAR M095","OBJECT_ID":"2013-005F","EPOCH":"2026-04-25T15:36:07.046784","MEAN_MOTION":12.62267355,"ECCENTRICITY":3.78e-5,"INCLINATION":52.0073,"RA_OF_ASC_NODE":81.1263,"ARG_OF_PERICENTER":130.2298,"MEAN_ANOMALY":229.8602,"EPHEMERIS_TYPE":0,"CLASSIFICATION_TYPE":"U","NORAD_CAT_ID":39077,"ELEMENT_SET_NO":999,"REV_AT_EPOCH":60923,"BSTAR":1.408e-5,"MEAN_MOTION_DOT":-1.01e-6,"MEAN_MOTION_DDOT":0},{"OBJECT_NAME":"GLOBALSTAR M087","OBJECT_ID":"2022-064A","EPOCH":"2026-04-25T14:01:28.054272","MEAN_MOTION":12.62268341,"ECCENTRICITY":6.14e-5,"INCLINATION":51.9997,"RA_OF_ASC_NODE":222.6002,"ARG_OF_PERICENTER":150.9549,"MEAN_ANOMALY":209.1352,"EPHEMERIS_TYPE":0,"CLASSIFICATION_TYPE":"U","NORAD_CAT_ID":52888,"ELEMENT_SET_NO":999,"REV_AT_EPOCH":18449,"BSTAR":3.2516e-5,"MEAN_MOTION_DOT":-9.8e-7,"MEAN_MOTION_DDOT":0}]
